OBJECT_NAME,OBJECT_ID,EPOCH,MEAN_MOTION,ECCENTRICITY,INCLINATION,RA_OF_ASC_NODE,ARG_OF_PERICENTER,MEAN_ANOMALY,EPHEMERIS_TYPE,CLASSIFICATION_TYPE,NORAD_CAT_ID,ELEMENT_SET_NO,REV_AT_EPOCH,BSTAR,MEAN_MOTION_DOT,MEAN_MOTION_DDOT
NIMIQ 4,2008-044A,2026-06-15T19:30:45.844704,1.00268103,.00020909,0.0315,39.8657,38.9354,36.0141,0,U,33373,999,6497,0,0,0
GALAXY 19 (G-19),2008-045A,2026-06-15T19:26:31.252416,1.00271275,.00024139,0.0397,264.4371,182.8848,11.4027,0,U,33376,999,6489,0,-.138E-5,0
ASTRA 1M,2008-057A,2026-06-15T20:34:38.920224,1.00271001,.00046487,0.2935,82.4341,24.0788,125.6440,0,U,33436,999,4572,0,.121E-5,0
EUTELSAT HOTBIRD 13C,2008-065A,2026-06-15T19:39:59.959872,1.00271290,.00032648,2.9470,79.2067,4.7714,64.8271,0,U,33459,999,4733,0,-.284E-5,0
EXPRESS-AM44,2009-007A,2026-06-15T23:16:26.741280,1.00270970,.0003841,3.4596,78.4066,359.5231,164.4202,0,U,33595,999,5227,0,-.91E-6,0
NSS-9,2009-008A,2026-06-15T03:39:51.481152,1.00273074,.00018396,1.2567,82.6777,349.2934,69.5171,0,U,33749,999,6350,0,.75E-6,0
TELSTAR 11N,2009-009A,2026-06-15T19:43:37.111584,1.00270763,.00021508,0.0170,52.6327,24.9559,84.8541,0,U,34111,999,4623,0,-.25E-5,0
WGS F2 (USA 204),2009-017A,2026-06-15T11:37:26.766048,1.00269870,.00004684,0.0169,350.7003,286.6242,218.3135,0,U,34713,999,4560,0,.71E-6,0
SES-7 (PROTOSTAR 2),2009-027A,2026-06-15T06:43:55.890336,1.00270418,.0000521,0.0581,76.3170,247.0108,149.4859,0,U,34941,999,6261,0,-.341E-5,0
MEASAT-3A,2009-032A,2026-06-15T18:57:11.564352,1.00271510,.00028171,0.0231,343.3394,95.5536,269.4807,0,U,35362,999,801,0,-.109E-5,0
GOES 14,2009-033A,2026-06-15T20:34:57.070272,1.00111178,.00017148,1.6869,83.0567,10.9792,261.4348,0,U,35491,999,657,0,-.286E-5,0
FM-5,2009-034A,2026-06-14T19:32:31.676064,1.00269724,.00010188,0.0205,292.4193,18.8658,158.8044,0,U,35493,999,4662,0,-.194E-5,0
TERRESTAR-1,2009-035A,2026-06-15T15:57:19.712736,1.00270035,.00027713,5.1823,48.7993,27.2240,316.2400,0,U,35496,999,6211,0,-.58E-6,0
ASIASAT 5,2009-042A,2026-06-15T22:06:59.812704,1.00267702,.0001584,0.0244,31.5599,54.4913,250.4457,0,U,35696,999,6169,0,0,0
JCSAT-12 (JCSAT-RA),2009-044A,2026-06-15T20:31:57.357408,1.00271677,.0000465,0.0108,328.4201,348.2512,27.4946,0,U,35755,999,6159,0,-.327E-5,0
OPTUS D3,2009-044B,2026-06-15T18:56:11.659776,1.00271354,.00027319,0.8713,269.0481,177.2984,257.9110,0,U,35756,999,6155,0,-.144E-5,0
NIMIQ 5,2009-050A,2026-06-15T19:33:30.581856,1.00270447,.00025955,0.0121,301.9775,138.3993,44.4021,0,U,35873,999,6133,0,-.256E-5,0
AMAZONAS 2,2009-054A,2026-06-15T19:33:45.558432,1.00268993,.00031444,1.8123,83.0670,357.6319,44.8274,0,U,35942,999,6117,0,-.259E-5,0
COMSATBW-1,2009-054B,2026-06-15T17:41:24.847296,1.00272833,.00027449,0.0783,78.0432,12.8031,141.5478,0,U,35943,999,6129,0,.26E-6,0
NSS-12,2009-058A,2026-06-15T18:16:38.711424,1.00273604,.00045086,0.0423,48.8789,2.3809,183.9483,0,U,36032,999,6090,0,.73E-6,0
THOR 6,2009-058B,2026-06-15T19:04:38.646336,1.00270698,.00015291,0.0180,65.5624,13.8807,109.9520,0,U,36033,999,6099,0,-.9E-7,0
INTELSAT 14 (IS-14),2009-064A,2026-06-15T19:41:29.815872,1.00269245,.00022576,0.0212,295.0936,140.5741,78.8126,0,U,36097,999,6059,0,-.272E-5,0
EUTELSAT 36B,2009-065A,2026-06-15T23:59:56.758272,1.00273310,.00057759,0.4888,81.0923,2.0145,231.6562,0,U,36101,999,6069,0,.112E-5,0
INTELSAT 15 (IS-15),2009-067A,2026-06-15T20:18:36.137376,1.00270817,.00020409,0.0160,303.5717,143.6529,206.6964,0,U,36106,999,4121,0,-.184E-5,0
WGS F3 (USA 211),2009-068A,2026-06-15T12:26:33.223776,1.00270178,.00000895,0.3277,85.8019,198.8023,35.8414,0,U,36108,999,4657,0,.67E-6,0
DIRECTV 12,2009-075A,2026-06-15T10:51:38.157408,1.00272221,.00003372,0.0233,154.0951,245.9985,283.8318,0,U,36131,999,4653,0,-.101E-5,0
BEIDOU-2 G1,2010-001A,2026-06-15T22:17:04.773408,1.00270737,.0002255,4.2899,60.4073,296.5945,21.9487,0,U,36287,999,6015,0,-.282E-5,0
SDO,2010-005A,2026-06-14T10:29:29.087808,1.00269990,.00017144,34.6460,86.3840,49.5303,182.1298,0,U,36395,999,6003,0,-.94E-6,0
INTELSAT 16 (IS-16),2010-006A,2026-06-15T19:32:30.678144,1.00269322,.00019162,0.0185,306.7967,158.8952,15.3218,0,U,36397,999,5964,0,-.243E-5,0
EWS-G2 (GOES 15),2010-008A,2026-06-15T18:08:38.768064,1.00275788,.00053933,1.2741,82.8801,42.3367,114.6857,0,U,36411,999,5962,0,.18E-6,0
ECHOSTAR 14,2010-010A,2026-06-15T15:55:04.927872,1.00272362,.00023066,0.0425,83.6135,19.4409,280.7801,0,U,36499,999,4653,0,.2E-7,0
SES-1,2010-016A,2026-06-15T16:00:11.938176,1.00271103,.00024767,0.0141,328.8073,114.7621,319.4298,0,U,36516,999,5901,0,-.112E-5,0
