NIMIQ 4                 
1 33373U 08044A   26166.81303061  .00000000  00000+0  00000+0 0  9996
2 33373   0.0315  39.8657 0002090  38.9354  36.0141  1.00268103 64973
GALAXY 19 (G-19)        
1 33376U 08045A   26166.81008394 -.00000138  00000+0  00000+0 0  9994
2 33376   0.0397 264.4371 0002413 182.8848  11.4027  1.00271275 64896
ASTRA 1M                
1 33436U 08057A   26166.85739491  .00000121  00000+0  00000+0 0  9998
2 33436   0.2935  82.4341 0004648  24.0788 125.6440  1.00271001 45725
EUTELSAT HOTBIRD 13C    
1 33459U 08065A   26166.81944398 -.00000284  00000+0  00000+0 0  9993
2 33459   2.9470  79.2067 0003264   4.7714  64.8271  1.00271290 47334
EXPRESS-AM44            
1 33595U 09007A   26166.96975395 -.00000091  00000+0  00000+0 0  9994
2 33595   3.4596  78.4066 0003841 359.5231 164.4202  1.00270970 52270
NSS-9                   
1 33749U 09008A   26166.15267918  .00000075  00000+0  00000+0 0  9993
2 33749   1.2567  82.6777 0001839 349.2934  69.5171  1.00273074 63508
TELSTAR 11N             
1 34111U 09009A   26166.82195731 -.00000250  00000+0  00000+0 0  9991
2 34111   0.0170  52.6327 0002150  24.9559  84.8541  1.00270763 46238
WGS F2 (USA 204)        
1 34713U 09017A   26166.48433757  .00000071  00000+0  00000+0 0  9993
2 34713   0.0169 350.7003 0000468 286.6242 218.3135  1.00269870 45603
SES-7 (PROTOSTAR 2)     
1 34941U 09027A   26166.28050799 -.00000341  00000+0  00000+0 0  9997
2 34941   0.0581  76.3170 0000521 247.0108 149.4859  1.00270418 62619
MEASAT-3A               
1 35362U 09032A   26166.78971718 -.00000109  00000+0  00000+0 0  9991
2 35362   0.0231 343.3394 0002817  95.5536 269.4807  1.00271510  8019
GOES 14                 
1 35491U 09033A   26166.85760498 -.00000286  00000+0  00000+0 0  9990
2 35491   1.6869  83.0567 0001714  10.9792 261.4348  1.00111178  6570
FM-5                    
1 35493U 09034A   26165.81425551 -.00000194  00000+0  00000+0 0  9994
2 35493   0.0205 292.4193 0001018  18.8658 158.8044  1.00269724 46628
TERRESTAR-1             
1 35496U 09035A   26166.66481149 -.00000058  00000+0  00000+0 0  9996
2 35496   5.1823  48.7993 0002771  27.2240 316.2400  1.00270035 62116
ASIASAT 5               
1 35696U 09042A   26166.92152561  .00000000  00000+0  00000+0 0  9994
2 35696   0.0244  31.5599 0001584  54.4913 250.4457  1.00267702 61691
JCSAT-12 (JCSAT-RA)     
1 35755U 09044A   26166.85552497 -.00000327  00000+0  00000+0 0  9999
2 35755   0.0108 328.4201 0000465 348.2512  27.4946  1.00271677 61590
OPTUS D3                
1 35756U 09044B   26166.78902384 -.00000144  00000+0  00000+0 0  9993
2 35756   0.8713 269.0481 0002731 177.2984 257.9110  1.00271354 61553
NIMIQ 5                 
1 35873U 09050A   26166.81493729 -.00000256  00000+0  00000+0 0  9996
2 35873   0.0121 301.9775 0002595 138.3993  44.4021  1.00270447 61334
AMAZONAS 2              
1 35942U 09054A   26166.81511063 -.00000259  00000+0  00000+0 0  9992
2 35942   1.8123  83.0670 0003144 357.6319  44.8274  1.00268993 61172
COMSATBW-1              
1 35943U 09054B   26166.73709314  .00000026  00000+0  00000+0 0  9993
2 35943   0.0783  78.0432 0002744  12.8031 141.5478  1.00272833 61294
NSS-12                  
1 36032U 09058A   26166.76155916  .00000073  00000+0  00000+0 0  9995
2 36032   0.0423  48.8789 0004508   2.3809 183.9483  1.00273604 60902
THOR 6                  
1 36033U 09058B   26166.79489174 -.00000009  00000+0  00000+0 0  9995
2 36033   0.0180  65.5624 0001529  13.8807 109.9520  1.00270698 60991
INTELSAT 14 (IS-14)     
1 36097U 09064A   26166.82048398 -.00000272  00000+0  00000+0 0  9997
2 36097   0.0212 295.0936 0002257 140.5741  78.8126  1.00269245 60595
EUTELSAT 36B            
1 36101U 09065A   26166.99996248  .00000112  00000+0  00000+0 0  9990
2 36101   0.4888  81.0923 0005775   2.0145 231.6562  1.00273310 60693
INTELSAT 15 (IS-15)     
1 36106U 09067A   26166.84625159 -.00000184  00000+0  00000+0 0  9991
2 36106   0.0160 303.5717 0002040 143.6529 206.6964  1.00270817 41214
WGS F3 (USA 211)        
1 36108U 09068A   26166.51844009  .00000067  00000+0  00000+0 0  9994
2 36108   0.3277  85.8019 0000089 198.8023  35.8414  1.00270178 46571
DIRECTV 12              
1 36131U 09075A   26166.45252497 -.00000101  00000+0  00000+0 0  9995
2 36131   0.0233 154.0951 0000337 245.9985 283.8318  1.00272221 46532
BEIDOU-2 G1             
1 36287U 10001A   26166.92852747 -.00000282  00000+0  00000+0 0  9994
2 36287   4.2899  60.4073 0002255 296.5945  21.9487  1.00270737 60154
SDO                     
1 36395U 10005A   26165.43714222 -.00000094  00000+0  00000+0 0  9999
2 36395  34.6460  86.3840 0001714  49.5303 182.1298  1.00269990 60033
INTELSAT 16 (IS-16)     
1 36397U 10006A   26166.81424396 -.00000243  00000+0  00000+0 0  9991
2 36397   0.0185 306.7967 0001916 158.8952  15.3218  1.00269322 59646
EWS-G2 (GOES 15)        
1 36411U 10008A   26166.75600426  .00000018  00000+0  00000+0 0  9992
2 36411   1.2741  82.8801 0005393  42.3367 114.6857  1.00275788 59626
ECHOSTAR 14             
1 36499U 10010A   26166.66325148  .00000002  00000+0  00000+0 0  9999
2 36499   0.0425  83.6135 0002306  19.4409 280.7801  1.00272362 46535
SES-1                   
1 36516U 10016A   26166.66680484 -.00000112  00000+0  00000+0 0  9995
2 36516   0.0141 328.8073 0002476 114.7621 319.4298  1.00271103 59017
